{
  "type": "FeatureCollection",
  "features": [
    {
      "type": "Feature",
      "properties": {
        "norad_id": 36083,
        "name": "IRIDIUM 33 DEB",
        "group": "iridium-33-debris",
        "lat": 48.07157761428901,
        "lon": -147.6633342732852,
        "alt_km": 749.7185613037227,
        "timestamp": "2025-12-07T11:27:50.391990+00:00",
        "meta_object_name": "IRIDIUM 33 DEB",
        "meta_object_id": "1997-051VQ",
        "meta_epoch": "2025-12-06T21:32:26.892672",
        "meta_mean_motion": 14.43175138,
        "meta_eccentricity": 0.00247889,
        "meta_inclination": 86.3442,
        "meta_ra_of_asc_node": 36.6683,
        "meta_arg_of_pericenter": 243.3344,
        "meta_mean_anomaly": 116.5319,
        "meta_ephemeris_type": 0,
        "meta_classification_type": "U",
        "meta_norad_cat_id": 36083,
        "meta_element_set_no": 999,
        "meta_rev_at_epoch": 85365,
        "meta_bstar": 0.00098432537,
        "meta_mean_motion_dot": 3.337e-05,
        "meta_mean_motion_ddot": 0,
        "tle_line1": "1 36083U 97051VQ  25340.89753348  .00003337  00000+0  98433-3 0  9998",
        "tle_line2": "2 36083  86.3442  36.6683 0024788 243.3344 116.5319 14.43175138853653"
      },
      "geometry": {
        "type": "Point",
        "coordinates": [
          -147.6633342732852,
          48.07157761428901
        ]
      }
    },
    {
      "type": "Feature",
      "properties": {
        "norad_id": 36390,
        "name": "IRIDIUM 33 DEB",
        "group": "iridium-33-debris",
        "lat": 83.38616127974333,
        "lon": 87.76457870852532,
        "alt_km": 640.9872799317936,
        "timestamp": "2025-12-07T11:27:50.392006+00:00",
        "meta_object_name": "IRIDIUM 33 DEB",
        "meta_object_id": "1997-051VU",
        "meta_epoch": "2025-11-30T04:37:26.668128",
        "meta_mean_motion": 14.73329322,
        "meta_eccentricity": 0.00285998,
        "meta_inclination": 86.289,
        "meta_ra_of_asc_node": 305.1428,
        "meta_arg_of_pericenter": 206.0853,
        "meta_mean_anomaly": 153.8925,
        "meta_ephemeris_type": 0,
        "meta_classification_type": "U",
        "meta_norad_cat_id": 36390,
        "meta_element_set_no": 999,
        "meta_rev_at_epoch": 66077,
        "meta_bstar": 0.001268982,
        "meta_mean_motion_dot": 8.29e-05,
        "meta_mean_motion_ddot": 0,
        "tle_line1": "1 36390U 97051VU  25334.19266977  .00008290  00000+0  12690-2 0  9995",
        "tle_line2": "2 36390  86.2890 305.1428 0028599 206.0853 153.8925 14.73329322660771"
      },
      "geometry": {
        "type": "Point",
        "coordinates": [
          87.76457870852532,
          83.38616127974333
        ]
      }
    },
    {
      "type": "Feature",
      "properties": {
        "norad_id": 36483,
        "name": "IRIDIUM 33 DEB",
        "group": "iridium-33-debris",
        "lat": -66.26589050573031,
        "lon": -116.9791792590901,
        "alt_km": 748.9121470591099,
        "timestamp": "2025-12-07T11:27:50.392023+00:00",
        "meta_object_name": "IRIDIUM 33 DEB",
        "meta_object_id": "1997-051VZ",
        "meta_epoch": "2025-12-06T22:42:02.671200",
        "meta_mean_motion": 14.457778,
        "meta_eccentricity": 0.00108094,
        "meta_inclination": 86.3798,
        "meta_ra_of_asc_node": 54.9695,
        "meta_arg_of_pericenter": 142.1812,
        "meta_mean_anomaly": 218.0152,
        "meta_ephemeris_type": 0,
        "meta_classification_type": "U",
        "meta_norad_cat_id": 36483,
        "meta_element_set_no": 999,
        "meta_rev_at_epoch": 65062,
        "meta_bstar": 0.00091800132,
        "meta_mean_motion_dot": 3.275e-05,
        "meta_mean_motion_ddot": 0,
        "tle_line1": "1 36483U 97051VZ  25340.94586425  .00003275  00000+0  91800-3 0  9990",
        "tle_line2": "2 36483  86.3798  54.9695 0010809 142.1812 218.0152 14.45777800650623"
      },
      "geometry": {
        "type": "Point",
        "coordinates": [
          -116.9791792590901,
          -66.26589050573031
        ]
      }
    },
    {
      "type": "Feature",
      "properties": {
        "norad_id": 36490,
        "name": "IRIDIUM 33 DEB",
        "group": "iridium-33-debris",
        "lat": -69.75386654157134,
        "lon": 2.911748532325568,
        "alt_km": 652.9535026254989,
        "timestamp": "2025-12-07T11:27:50.392039+00:00",
        "meta_object_name": "IRIDIUM 33 DEB",
        "meta_object_id": "1997-051WG",
        "meta_epoch": "2025-12-06T19:30:38.149920",
        "meta_mean_motion": 14.7600652,
        "meta_eccentricity": 0.00054864,
        "meta_inclination": 86.365,
        "meta_ra_of_asc_node": 13.136,
        "meta_arg_of_pericenter": 96.0006,
        "meta_mean_anomaly": 264.1838,
        "meta_ephemeris_type": 0,
        "meta_classification_type": "U",
        "meta_norad_cat_id": 36490,
        "meta_element_set_no": 999,
        "meta_rev_at_epoch": 86397,
        "meta_bstar": 0.0026714204,
        "meta_mean_motion_dot": 0.00018448,
        "meta_mean_motion_ddot": 0,
        "tle_line1": "1 36490U 97051WG  25340.81294155  .00018448  00000+0  26714-2 0  9999",
        "tle_line2": "2 36490  86.3650  13.1360 0005486  96.0006 264.1838 14.76006520863976"
      },
      "geometry": {
        "type": "Point",
        "coordinates": [
          2.911748532325568,
          -69.75386654157134
        ]
      }
    },
    {
      "type": "Feature",
      "properties": {
        "norad_id": 36493,
        "name": "IRIDIUM 33 DEB",
        "group": "iridium-33-debris",
        "lat": 59.232548312404724,
        "lon": 20.16055529113586,
        "alt_km": 664.7419090004623,
        "timestamp": "2025-12-07T11:27:50.392056+00:00",
        "meta_object_name": "IRIDIUM 33 DEB",
        "meta_object_id": "1997-051WK",
        "meta_epoch": "2025-12-04T20:54:22.682304",
        "meta_mean_motion": 14.65078368,
        "meta_eccentricity": 0.0011123,
        "meta_inclination": 86.3577,
        "meta_ra_of_asc_node": 15.1759,
        "meta_arg_of_pericenter": 30.554,
        "meta_mean_anomaly": 329.6318,
        "meta_ephemeris_type": 0,
        "meta_classification_type": "U",
        "meta_norad_cat_id": 36493,
        "meta_element_set_no": 999,
        "meta_rev_at_epoch": 74403,
        "meta_bstar": 0.0027859,
        "meta_mean_motion_dot": 0.00015002,
        "meta_mean_motion_ddot": 0,
        "tle_line1": "1 36493U 97051WK  25338.87109586  .00015002  00000+0  27859-2 0  9992",
        "tle_line2": "2 36493  86.3577  15.1759 0011123  30.5540 329.6318 14.65078368744034"
      },
      "geometry": {
        "type": "Point",
        "coordinates": [
          20.16055529113586,
          59.232548312404724
        ]
      }
    },
    {
      "type": "Feature",
      "properties": {
        "norad_id": 37548,
        "name": "IRIDIUM 33 DEB",
        "group": "iridium-33-debris",
        "lat": 30.74871232645935,
        "lon": -136.51637465239747,
        "alt_km": 711.0321323406106,
        "timestamp": "2025-12-07T11:27:50.392071+00:00",
        "meta_object_name": "IRIDIUM 33 DEB",
        "meta_object_id": "1997-051XH",
        "meta_epoch": "2025-11-29T22:23:36.250944",
        "meta_mean_motion": 14.5113469,
        "meta_eccentricity": 0.00243457,
        "meta_inclination": 86.3524,
        "meta_ra_of_asc_node": 48.9393,
        "meta_arg_of_pericenter": 232.6782,
        "meta_mean_anomaly": 127.2204,
        "meta_ephemeris_type": 0,
        "meta_classification_type": "U",
        "meta_norad_cat_id": 37548,
        "meta_element_set_no": 999,
        "meta_rev_at_epoch": 65346,
        "meta_bstar": 0.0012745087,
        "meta_mean_motion_dot": 5.093e-05,
        "meta_mean_motion_ddot": 0,
        "tle_line1": "1 37548U 97051XH  25333.93305846  .00005093  00000+0  12745-2 0  9990",
        "tle_line2": "2 37548  86.3524  48.9393 0024345 232.6782 127.2204 14.51134690653467"
      },
      "geometry": {
        "type": "Point",
        "coordinates": [
          -136.51637465239747,
          30.74871232645935
        ]
      }
    },
    {
      "type": "Feature",
      "properties": {
        "norad_id": 37550,
        "name": "IRIDIUM 33 DEB",
        "group": "iridium-33-debris",
        "lat": -64.8509120077577,
        "lon": -146.03613077550585,
        "alt_km": 679.6576776245502,
        "timestamp": "2025-12-07T11:27:50.392087+00:00",
        "meta_object_name": "IRIDIUM 33 DEB",
        "meta_object_id": "1997-051XK",
        "meta_epoch": "2025-12-06T21:15:18.690336",
        "meta_mean_motion": 14.67089693,
        "meta_eccentricity": 0.00053572,
        "meta_inclination": 86.377,
        "meta_ra_of_asc_node": 26.47,
        "meta_arg_of_pericenter": 124.88,
        "meta_mean_anomaly": 235.2918,
        "meta_ephemeris_type": 0,
        "meta_classification_type": "U",
        "meta_norad_cat_id": 37550,
        "meta_element_set_no": 999,
        "meta_rev_at_epoch": 86247,
        "meta_bstar": 0.0020360196,
        "meta_mean_motion_dot": 0.00011461,
        "meta_mean_motion_ddot": 0,
        "tle_line1": "1 37550U 97051XK  25340.88563299  .00011461  00000+0  20360-2 0  9991",
        "tle_line2": "2 37550  86.3770  26.4700 0005357 124.8800 235.2918 14.67089693862475"
      },
      "geometry": {
        "type": "Point",
        "coordinates": [
          -146.03613077550585,
          -64.8509120077577
        ]
      }
    }
  ]
}